[{"OBJECT_NAME":"COSMOS 2456 (730)","OBJECT_ID":"2009-070A","EPOCH":"2026-04-26T22:26:13.714080","MEAN_MOTION":2.13103361,"ECCENTRICITY":0.0006185,"INCLINATION":64.9833,"RA_OF_ASC_NODE":72.7188,"ARG_OF_PERICENTER":317.3531,"MEAN_ANOMALY":219.7098,"EPHEMERIS_TYPE":0,"CLASSIFICATION_TYPE":"U","NORAD_CAT_ID":36111,"ELEMENT_SET_NO":999,"REV_AT_EPOCH":12733,"BSTAR":0,"MEAN_MOTION_DOT":-7.0e-8,"MEAN_MOTION_DDOT":0},{"OBJECT_NAME":"COSMOS 2457 (733)","OBJECT_ID":"2009-070B","EPOCH":"2026-04-27T03:53:41.957088","MEAN_MOTION":2.13100836,"ECCENTRICITY":0.0001155,"INCLINATION":64.9688,"RA_OF_ASC_NODE":72.5561,"ARG_OF_PERICENTER":162.1802,"MEAN_ANOMALY":317.2213,"EPHEMERIS_TYPE":0,"CLASSIFICATION_TYPE":"U","NORAD_CAT_ID":36112,"ELEMENT_SET_NO":999,"REV_AT_EPOCH":12734,"BSTAR":0,"MEAN_MOTION_DOT":-1.0e-7,"MEAN_MOTION_DDOT":0},{"OBJECT_NAME":"COSMOS 2460 (732)","OBJECT_ID":"2010-007C","EPOCH":"2026-04-25T14:26:57.400800","MEAN_MOTION":2.13105948,"ECCENTRICITY":0.00022771,"INCLINATION":65.4503,"RA_OF_ASC_NODE":316.2461,"ARG_OF_PERICENTER":66.9045,"MEAN_ANOMALY":297.1399,"EPHEMERIS_TYPE":0,"CLASSIFICATION_TYPE":"U","NORAD_CAT_ID":36402,"ELEMENT_SET_NO":999,"REV_AT_EPOCH":12561,"BSTAR":0,"MEAN_MOTION_DOT":-2.5e-7,"MEAN_MOTION_DDOT":0},{"OBJECT_NAME":"GPS BIIF-1  (PRN 25)","OBJECT_ID":"2010-022A","EPOCH":"2026-04-26T02:27:29.888928","MEAN_MOTION":2.00559802,"ECCENTRICITY":0.01266159,"INCLINATION":54.2771,"RA_OF_ASC_NODE":210.66,"ARG_OF_PERICENTER":66.0741,"MEAN_ANOMALY":291.6371,"EPHEMERIS_TYPE":0,"CLASSIFICATION_TYPE":"U","NORAD_CAT_ID":36585,"ELEMENT_SET_NO":999,"REV_AT_EPOCH":11654,"BSTAR":0,"MEAN_MOTION_DOT":-4.3e-7,"MEAN_MOTION_DDOT":0},{"OBJECT_NAME":"BEIDOU-2 IGSO-1 (C06)","OBJECT_ID":"2010-036A","EPOCH":"2026-04-23T19:55:57.482688","MEAN_MOTION":1.00288096,"ECCENTRICITY":0.00583551,"INCLINATION":54.2917,"RA_OF_ASC_NODE":163.4511,"ARG_OF_PERICENTER":224.0017,"MEAN_ANOMALY":229.7808,"EPHEMERIS_TYPE":0,"CLASSIFICATION_TYPE":"U","NORAD_CAT_ID":36828,"ELEMENT_SET_NO":999,"REV_AT_EPOCH":5755,"BSTAR":0,"MEAN_MOTION_DOT":-1.09e-6,"MEAN_MOTION_DDOT":0},{"OBJECT_NAME":"BEIDOU-2 G4 (C04)","OBJECT_ID":"2010-057A","EPOCH":"2026-04-27T03:48:16.167744","MEAN_MOTION":1.00270118,"ECCENTRICITY":0.0006459,"INCLINATION":3.5227,"RA_OF_ASC_NODE":69.2314,"ARG_OF_PERICENTER":213.4659,"MEAN_ANOMALY":149.4463,"EPHEMERIS_TYPE":0,"CLASSIFICATION_TYPE":"U","NORAD_CAT_ID":37210,"ELEMENT_SET_NO":999,"REV_AT_EPOCH":5678,"BSTAR":0,"MEAN_MOTION_DOT":-1.21e-6,"MEAN_MOTION_DDOT":0},{"OBJECT_NAME":"BEIDOU-2 IGSO-2 (C07)","OBJECT_ID":"2010-068A","EPOCH":"2026-04-26T20:54:37.728000","MEAN_MOTION":1.00299784,"ECCENTRICITY":0.00532377,"INCLINATION":47.6441,"RA_OF_ASC_NODE":272.4653,"ARG_OF_PERICENTER":211.5565,"MEAN_ANOMALY":149.1985,"EPHEMERIS_TYPE":0,"CLASSIFICATION_TYPE":"U","NORAD_CAT_ID":37256,"ELEMENT_SET_NO":999,"REV_AT_EPOCH":5628,"BSTAR":0,"MEAN_MOTION_DOT":-2.22e-6,"MEAN_MOTION_DDOT":0},{"OBJECT_NAME":"BEIDOU-2 IGSO-3 (C08)","OBJECT_ID":"2011-013A","EPOCH":"2026-04-24T17:34:48.622080","MEAN_MOTION":1.00280536,"ECCENTRICITY":0.00337019,"INCLINATION":62.3393,"RA_OF_ASC_NODE":40.6572,"ARG_OF_PERICENTER":188.3614,"MEAN_ANOMALY":355.5484,"EPHEMERIS_TYPE":0,"CLASSIFICATION_TYPE":"U","NORAD_CAT_ID":37384,"ELEMENT_SET_NO":999,"REV_AT_EPOCH":5512,"BSTAR":0,"MEAN_MOTION_DOT":-2.01e-6,"MEAN_MOTION_DDOT":0},{"OBJECT_NAME":"GSAT-8 (GAGAN/PRN 127)","OBJECT_ID":"2011-022A","EPOCH":"2026-04-27T02:07:51.551040","MEAN_MOTION":1.00270514,"ECCENTRICITY":0.0004687,"INCLINATION":2.0009,"RA_OF_ASC_NODE":82.4145,"ARG_OF_PERICENTER":227.4448,"MEAN_ANOMALY":352.2573,"EPHEMERIS_TYPE":0,"CLASSIFICATION_TYPE":"U","NORAD_CAT_ID":37605,"ELEMENT_SET_NO":999,"REV_AT_EPOCH":5270,"BSTAR":0,"MEAN_MOTION_DOT":7.6e-7,"MEAN_MOTION_DDOT":0},{"OBJECT_NAME":"BEIDOU-2 IGSO-4 (C09)","OBJECT_ID":"2011-038A","EPOCH":"2026-04-20T22:49:52.538592","MEAN_MOTION":1.0025708,"ECCENTRICITY":0.01583758,"INCLINATION":54.5868,"RA_OF_ASC_NODE":166.1972,"ARG_OF_PERICENTER":231.6843,"MEAN_ANOMALY":245.893,"EPHEMERIS_TYPE":0,"CLASSIFICATION_TYPE":"U","NORAD_CAT_ID":37763,"ELEMENT_SET_NO":999,"REV_AT_EPOCH":5407,"BSTAR":0,"MEAN_MOTION_DOT":-1.5e-7,"MEAN_MOTION_DDOT":0},{"OBJECT_NAME":"GSAT0101 (GALILEO-PFM)","OBJECT_ID":"2011-060A","EPOCH":"2026-04-26T05:29:44.951136","MEAN_MOTION":1.70475694,"ECCENTRICITY":0.0003765,"INCLINATION":57.0096,"RA_OF_ASC_NODE":343.1709,"ARG_OF_PERICENTER":27.25,"MEAN_ANOMALY":332.8105,"EPHEMERIS_TYPE":0,"CLASSIFICATION_TYPE":"U","NORAD_CAT_ID":37846,"ELEMENT_SET_NO":999,"REV_AT_EPOCH":9023,"BSTAR":0,"MEAN_MOTION_DOT":-9.1e-7,"MEAN_MOTION_DDOT":0},{"OBJECT_NAME":"GSAT0102 (GALILEO-FM2)","OBJECT_ID":"2011-060B","EPOCH":"2026-04-26T10:51:47.390112","MEAN_MOTION":1.70475958,"ECCENTRICITY":0.00047089,"INCLINATION":57.0107,"RA_OF_ASC_NODE":343.1653,"ARG_OF_PERICENTER":9.1421,"MEAN_ANOMALY":173.7389,"EPHEMERIS_TYPE":0,"CLASSIFICATION_TYPE":"U","NORAD_CAT_ID":37847,"ELEMENT_SET_NO":999,"REV_AT_EPOCH":9024,"BSTAR":0,"MEAN_MOTION_DOT":-9.1e-7,"MEAN_MOTION_DDOT":0},{"OBJECT_NAME":"COSMOS 2476 (744)","OBJECT_ID":"2011-064A","EPOCH":"2026-04-25T15:22:29.441856","MEAN_MOTION":2.13103647,"ECCENTRICITY":0.00242894,"INCLINATION":65.2415,"RA_OF_ASC_NODE":74.6442,"ARG_OF_PERICENTER":242.1943,"MEAN_ANOMALY":290.2948,"EPHEMERIS_TYPE":0,"CLASSIFICATION_TYPE":"U","NORAD_CAT_ID":37867,"ELEMENT_SET_NO":999,"REV_AT_EPOCH":11264,"BSTAR":0,"MEAN_MOTION_DOT":1.3e-7,"MEAN_MOTION_DDOT":0},{"OBJECT_NAME":"COSMOS 2477 (745)","OBJECT_ID":"2011-064B","EPOCH":"2026-04-25T09:55:19.123392","MEAN_MOTION":2.13102721,"ECCENTRICITY":0.00212181,"INCLINATION":65.2482,"RA_OF_ASC_NODE":74.7307,"ARG_OF_PERICENTER":243.9746,"MEAN_ANOMALY":294.7055,"EPHEMERIS_TYPE":0,"CLASSIFICATION_TYPE":"U","NORAD_CAT_ID":37868,"ELEMENT_SET_NO":999,"REV_AT_EPOCH":11263,"BSTAR":0,"MEAN_MOTION_DOT":1.5e-7,"MEAN_MOTION_DDOT":0},{"OBJECT_NAME":"COSMOS 2475 (743)","OBJECT_ID":"2011-064C","EPOCH":"2026-04-26T09:38:30.177024","MEAN_MOTION":2.13101656,"ECCENTRICITY":0.0027096,"INCLINATION":65.2555,"RA_OF_ASC_NODE":74.7187,"ARG_OF_PERICENTER":255.3204,"MEAN_ANOMALY":276.9088,"EPHEMERIS_TYPE":0,"CLASSIFICATION_TYPE":"U","NORAD_CAT_ID":37869,"ELEMENT_SET_NO":999,"REV_AT_EPOCH":11266,"BSTAR":0,"MEAN_MOTION_DOT":5.0e-8,"MEAN_MOTION_DDOT":0},{"OBJECT_NAME":"BEIDOU-2 IGSO-5 (C10)","OBJECT_ID":"2011-073A","EPOCH":"2026-04-26T21:25:24.262752","MEAN_MOTION":1.00260215,"ECCENTRICITY":0.01106297,"INCLINATION":47.7736,"RA_OF_ASC_NODE":272.1759,"ARG_OF_PERICENTER":220.6447,"MEAN_ANOMALY":136.9806,"EPHEMERIS_TYPE":0,"CLASSIFICATION_TYPE":"U","NORAD_CAT_ID":37948,"ELEMENT_SET_NO":999,"REV_AT_EPOCH":5261,"BSTAR":0,"MEAN_MOTION_DOT":-2.15e-6,"MEAN_MOTION_DDOT":0},{"OBJECT_NAME":"LUCH 5A (SDCM/PRN 140)","OBJECT_ID":"2011-074B","EPOCH":"2026-04-27T02:34:38.741376","MEAN_MOTION":1.00273004,"ECCENTRICITY":0.0002752,"INCLINATION":8.6271,"RA_OF_ASC_NODE":74.5436,"ARG_OF_PERICENTER":305.3035,"MEAN_ANOMALY":40.8405,"EPHEMERIS_TYPE":0,"CLASSIFICATION_TYPE":"U","NORAD_CAT_ID":37951,"ELEMENT_SET_NO":999,"REV_AT_EPOCH":5253,"BSTAR":0,"MEAN_MOTION_DOT":-5.4e-7,"MEAN_MOTION_DDOT":0}]
